FENGYUN 1C DEB          
1 30098U 99025RB  17345.13681761  .00004126  00000-0  49814-3 0  9990
2 30098  99.3246  38.2074 0070484 213.4843 146.1900 14.82727515574433
